CCSDS_OMM_VERS = 2.0
CREATION_DATE  = 
ORIGINATOR     = 

OBJECT_NAME    = UNKNOWN
OBJECT_ID      = 
CENTER_NAME    = EARTH
REF_FRAME      = TEME
TIME_SYSTEM    = UTC
MEAN_ELEMENT_THEORY = SGP/SGP4

EPOCH          = 2026-04-03T13:50:53.662272
MEAN_MOTION    = 12.26145127
ECCENTRICITY   = .0384903
INCLINATION    = 101.1021
RA_OF_ASC_NODE = 147.8036
ARG_OF_PERICENTER = 230.2534
MEAN_ANOMALY   = 126.4018

EPHEMERIS_TYPE = 0
CLASSIFICATION_TYPE = U
NORAD_CAT_ID   = 81693
ELEMENT_SET_NO = 999
REV_AT_EPOCH   = 98147
BSTAR          = .13158E-1
MEAN_MOTION_DOT = .1834E-4
MEAN_MOTION_DDOT = 0

CCSDS_OMM_VERS = 2.0
CREATION_DATE  = 
ORIGINATOR     = 

OBJECT_NAME    = UNKNOWN
OBJECT_ID      = 
CENTER_NAME    = EARTH
REF_FRAME      = TEME
TIME_SYSTEM    = UTC
MEAN_ELEMENT_THEORY = SGP/SGP4

EPOCH          = 2026-04-04T09:45:24.938496
MEAN_MOTION    = 14.40996057
ECCENTRICITY   = .0003889
INCLINATION    = 70.9991
RA_OF_ASC_NODE = 140.7846
ARG_OF_PERICENTER = 3.3668
MEAN_ANOMALY   = 356.7493

EPHEMERIS_TYPE = 0
CLASSIFICATION_TYPE = U
NORAD_CAT_ID   = 81745
ELEMENT_SET_NO = 999
REV_AT_EPOCH   = 64597
BSTAR          = .10657E-2
MEAN_MOTION_DOT = .3378E-4
MEAN_MOTION_DDOT = 0

CCSDS_OMM_VERS = 2.0
CREATION_DATE  = 
ORIGINATOR     = 

OBJECT_NAME    = UNKNOWN
OBJECT_ID      = 
CENTER_NAME    = EARTH
REF_FRAME      = TEME
TIME_SYSTEM    = UTC
MEAN_ELEMENT_THEORY = SGP/SGP4

EPOCH          = 2026-04-05T12:40:55.454304
MEAN_MOTION    = 12.77646845
ECCENTRICITY   = .036754
INCLINATION    = 99.6730
RA_OF_ASC_NODE = 114.1051
ARG_OF_PERICENTER = 321.3934
MEAN_ANOMALY   = 196.0680

EPHEMERIS_TYPE = 0
CLASSIFICATION_TYPE = U
NORAD_CAT_ID   = 81749
ELEMENT_SET_NO = 999
REV_AT_EPOCH   = 57653
BSTAR          = .59772E-3
MEAN_MOTION_DOT = .137E-5
MEAN_MOTION_DDOT = 0

CCSDS_OMM_VERS = 2.0
CREATION_DATE  = 
ORIGINATOR     = 

OBJECT_NAME    = UNKNOWN
OBJECT_ID      = 
CENTER_NAME    = EARTH
REF_FRAME      = TEME
TIME_SYSTEM    = UTC
MEAN_ELEMENT_THEORY = SGP/SGP4

EPOCH          = 2026-04-03T12:59:47.852448
MEAN_MOTION    = 14.42535610
ECCENTRICITY   = .0014302
INCLINATION    = 82.9175
RA_OF_ASC_NODE = 131.5109
ARG_OF_PERICENTER = 248.4298
MEAN_ANOMALY   = 111.5372

EPHEMERIS_TYPE = 0
CLASSIFICATION_TYPE = U
NORAD_CAT_ID   = 81775
ELEMENT_SET_NO = 999
REV_AT_EPOCH   = 64138
BSTAR          = .28325E-2
MEAN_MOTION_DOT = .9426E-4
MEAN_MOTION_DDOT = 0

CCSDS_OMM_VERS = 2.0
CREATION_DATE  = 
ORIGINATOR     = 

OBJECT_NAME    = UNKNOWN
OBJECT_ID      = 
CENTER_NAME    = EARTH
REF_FRAME      = TEME
TIME_SYSTEM    = UTC
MEAN_ELEMENT_THEORY = SGP/SGP4

EPOCH          = 2026-04-03T05:34:41.877696
MEAN_MOTION    = 9.33761831
ECCENTRICITY   = .143952
INCLINATION    = 54.4618
RA_OF_ASC_NODE = 43.4370
ARG_OF_PERICENTER = 149.0612
MEAN_ANOMALY   = 220.3591

EPHEMERIS_TYPE = 0
CLASSIFICATION_TYPE = U
NORAD_CAT_ID   = 81779
ELEMENT_SET_NO = 999
REV_AT_EPOCH   = 49073
BSTAR          = .16394E+0
MEAN_MOTION_DOT = .237E-4
MEAN_MOTION_DDOT = 0

CCSDS_OMM_VERS = 2.0
CREATION_DATE  = 
ORIGINATOR     = 

OBJECT_NAME    = UNKNOWN
OBJECT_ID      = 
CENTER_NAME    = EARTH
REF_FRAME      = TEME
TIME_SYSTEM    = UTC
MEAN_ELEMENT_THEORY = SGP/SGP4

EPOCH          = 2026-04-04T23:57:16.136352
MEAN_MOTION    = 13.11456183
ECCENTRICITY   = .0894902
INCLINATION    = 65.8317
RA_OF_ASC_NODE = 201.2657
ARG_OF_PERICENTER = 232.4582
MEAN_ANOMALY   = 119.1857

EPHEMERIS_TYPE = 0
CLASSIFICATION_TYPE = U
NORAD_CAT_ID   = 81792
ELEMENT_SET_NO = 999
REV_AT_EPOCH   = 9488
BSTAR          = .99726E-3
MEAN_MOTION_DOT = .2817E-4
MEAN_MOTION_DDOT = 0

CCSDS_OMM_VERS = 2.0
CREATION_DATE  = 
ORIGINATOR     = 

OBJECT_NAME    = UNKNOWN
OBJECT_ID      = 
CENTER_NAME    = EARTH
REF_FRAME      = TEME
TIME_SYSTEM    = UTC
MEAN_ELEMENT_THEORY = SGP/SGP4

EPOCH          = 2026-04-05T06:39:27.283104
MEAN_MOTION    = 12.38640937
ECCENTRICITY   = .0328843
INCLINATION    = 103.7971
RA_OF_ASC_NODE = 26.5535
ARG_OF_PERICENTER = 40.7660
MEAN_ANOMALY   = 321.7513

EPHEMERIS_TYPE = 0
CLASSIFICATION_TYPE = U
NORAD_CAT_ID   = 81812
ELEMENT_SET_NO = 999
REV_AT_EPOCH   = 55461
BSTAR          = .45714E-1
MEAN_MOTION_DOT = .7182E-4
MEAN_MOTION_DDOT = 0

CCSDS_OMM_VERS = 2.0
CREATION_DATE  = 
ORIGINATOR     = 

OBJECT_NAME    = UNKNOWN
OBJECT_ID      = 
CENTER_NAME    = EARTH
REF_FRAME      = TEME
TIME_SYSTEM    = UTC
MEAN_ELEMENT_THEORY = SGP/SGP4

EPOCH          = 2026-04-05T03:54:12.254112
MEAN_MOTION    = 13.89819653
ECCENTRICITY   = .0168642
INCLINATION    = 66.2390
RA_OF_ASC_NODE = 13.2655
ARG_OF_PERICENTER = 182.6023
MEAN_ANOMALY   = 177.4192

EPHEMERIS_TYPE = 0
CLASSIFICATION_TYPE = U
NORAD_CAT_ID   = 81816
ELEMENT_SET_NO = 999
REV_AT_EPOCH   = 62510
BSTAR          = .14118E-2
MEAN_MOTION_DOT = .1867E-4
MEAN_MOTION_DDOT = 0

CCSDS_OMM_VERS = 2.0
CREATION_DATE  = 
ORIGINATOR     = 

OBJECT_NAME    = UNKNOWN
OBJECT_ID      = 
CENTER_NAME    = EARTH
REF_FRAME      = TEME
TIME_SYSTEM    = UTC
MEAN_ELEMENT_THEORY = SGP/SGP4

EPOCH          = 2026-04-04T05:25:41.427552
MEAN_MOTION    = 12.47896904
ECCENTRICITY   = .0035449
INCLINATION    = 102.1686
RA_OF_ASC_NODE = 197.9690
ARG_OF_PERICENTER = 256.9002
MEAN_ANOMALY   = 102.8108

EPHEMERIS_TYPE = 0
CLASSIFICATION_TYPE = U
NORAD_CAT_ID   = 81819
ELEMENT_SET_NO = 999
REV_AT_EPOCH   = 56204
BSTAR          = .69734E-2
MEAN_MOTION_DOT = .987E-5
MEAN_MOTION_DDOT = 0

CCSDS_OMM_VERS = 2.0
CREATION_DATE  = 
ORIGINATOR     = 

OBJECT_NAME    = UNKNOWN
OBJECT_ID      = 
CENTER_NAME    = EARTH
REF_FRAME      = TEME
TIME_SYSTEM    = UTC
MEAN_ELEMENT_THEORY = SGP/SGP4

EPOCH          = 2026-04-05T04:59:52.652256
MEAN_MOTION    = 14.36771529
ECCENTRICITY   = .0048883
INCLINATION    = 65.8441
RA_OF_ASC_NODE = 27.1497
ARG_OF_PERICENTER = 280.6256
MEAN_ANOMALY   = 78.9335

EPHEMERIS_TYPE = 0
CLASSIFICATION_TYPE = U
NORAD_CAT_ID   = 81824
ELEMENT_SET_NO = 999
REV_AT_EPOCH   = 64088
BSTAR          = .19342E-2
MEAN_MOTION_DOT = .5708E-4
MEAN_MOTION_DDOT = 0

CCSDS_OMM_VERS = 2.0
CREATION_DATE  = 
ORIGINATOR     = 

OBJECT_NAME    = UNKNOWN
OBJECT_ID      = 
CENTER_NAME    = EARTH
REF_FRAME      = TEME
TIME_SYSTEM    = UTC
MEAN_ELEMENT_THEORY = SGP/SGP4

EPOCH          = 2026-04-05T11:53:59.953056
MEAN_MOTION    = 12.93784267
ECCENTRICITY   = .0028555
INCLINATION    = 90.2482
RA_OF_ASC_NODE = 5.4256
ARG_OF_PERICENTER = 83.6618
MEAN_ANOMALY   = 276.7751

EPHEMERIS_TYPE = 0
CLASSIFICATION_TYPE = U
NORAD_CAT_ID   = 81833
ELEMENT_SET_NO = 999
REV_AT_EPOCH   = 46722
BSTAR          = .18519E-2
MEAN_MOTION_DOT = .519E-5
MEAN_MOTION_DDOT = 0

CCSDS_OMM_VERS = 2.0
CREATION_DATE  = 
ORIGINATOR     = 

OBJECT_NAME    = UNKNOWN
OBJECT_ID      = 
CENTER_NAME    = EARTH
REF_FRAME      = TEME
TIME_SYSTEM    = UTC
MEAN_ELEMENT_THEORY = SGP/SGP4

EPOCH          = 2026-04-03T02:41:52.876320
MEAN_MOTION    = 14.58622573
ECCENTRICITY   = .0043546
INCLINATION    = 67.7608
RA_OF_ASC_NODE = 334.7650
ARG_OF_PERICENTER = 264.8935
MEAN_ANOMALY   = 246.6464

EPHEMERIS_TYPE = 0
CLASSIFICATION_TYPE = U
NORAD_CAT_ID   = 81838
ELEMENT_SET_NO = 999
REV_AT_EPOCH   = 64956
BSTAR          = .18607E-2
MEAN_MOTION_DOT = .8715E-4
MEAN_MOTION_DDOT = 0

