{"fetched_at":"2026-04-06T02:18:24Z","count":16827,"tles":[{"name":"UNKNOWN","line1":"1 81745U          26094.40653864  .00003378  00000+0  10657-2 0  9993","line2":"2 81745  70.9991 140.7846 0003889   3.3668 356.7493 14.40996057645979","category":"Other"},{"name":"UNKNOWN","line1":"1 81749U          26095.52841961  .00000137  00000+0  59772-3 0  9990","line2":"2 81749  99.6730 114.1051 0367540 321.3934 196.0680 12.77646845576534","category":"Other"},{"name":"UNKNOWN","line1":"1 81775U          26093.54152607  .00009426  00000+0  28325-2 0  9990","line2":"2 81775  82.9175 131.5109 0014302 248.4298 111.5372 14.42535610641382","category":"Other"},{"name":"UNKNOWN","line1":"1 81833U          26095.49583279  .00000519  00000+0  18519-2 0  9992","line2":"2 81833  90.2482   5.4256 0028555  83.6618 276.7751 12.93784267467224","category":"Other"},{"name":"UNKNOWN","line1":"1 81792U          26094.99810343  .00002817  00000+0  99726-3 0  9998","line2":"2 81792  65.8317 201.2657 0894902 232.4582 119.1857 13.11456183 94884","category":"Other"},{"name":"UNKNOWN","line1":"1 81779U          26093.23242914  .00002370  00000+0  16394+0 0  9992","line2":"2 81779  54.4618  43.4370 1439520 149.0612 220.3591  9.33761831490736","category":"Other"},{"name":"UNKNOWN","line1":"1 81812U          26095.27739911  .00007182  00000+0  45714-1 0  9990","line2":"2 81812 103.7971  26.5535 0328843  40.7660 321.7513 12.38640937554613","category":"Other"},{"name":"UNKNOWN","line1":"1 81816U          26095.16264183  .00001867  00000+0  14118-2 0  9995","line2":"2 81816  66.2390  13.2655 0168642 182.6023 177.4192 13.89819653625101","category":"Other"},{"name":"UNKNOWN","line1":"1 81819U          26094.22617393  .00000987  00000+0  69734-2 0  9995","line2":"2 81819 102.1686 197.9690 0035449 256.9002 102.8108 12.47896904562040","category":"Other"},{"name":"UNKNOWN","line1":"1 81824U          26095.20824829  .00005708  00000+0  19342-2 0  9990","line2":"2 81824  65.8441  27.1497 0048883 280.6256  78.9335 14.36771529640889","category":"Other"},{"name":"UNKNOWN","line1":"1 81693U          26093.57700998  .00001834  00000+0  13158-1 0  9996","line2":"2 81693 101.1021 147.8036 0384903 230.2534 126.4018 12.26145127981472","category":"Other"},{"name":"UNKNOWN","line1":"1 81838U          26093.11241755  .00008715  00000+0  18607-2 0  9998","line2":"2 81838  67.7608 334.7650 0043546 264.8935 246.6464 14.58622573649566","category":"Other"}]}